CSG-2                   
1 51444U 22008A   22060.47943175 -.00148078  00000+0 -18597-1 0  9990
2 51444  97.8750 245.7449 0001705  43.0220 317.4237 14.83052119  4224
STARLINK-3167           
1 51460U 22010E   22060.58334491  .00009044  00000+0  68850-4 0  9995
2 51460  53.2166  44.3366 0000993  37.1412 273.5598 15.73176810  5324
STARLINK-3181           
1 51461U 22010F   22060.58334491  .00004041  00000+0  33223-4 0  9994
2 51461  53.2175  44.5154 0001246  42.3441 182.4055 15.73176493  5383
STARLINK-3166           
1 51462U 22010G   22060.58334491 -.00080984  00000+0 -57708-3 0  9990
2 51462  53.2168  44.5117 0001442  62.5598 162.8133 15.73243030  5358
STARLINK-3419           
1 51463U 22010H   22060.25001157  .00026291  00000+0  19126-3 0  9996
2 51463  53.2163  45.9808 0001700  41.0930 182.5419 15.73186829  5274
STARLINK-3189           
1 51464U 22010J   22060.58334491  .00005919  00000+0  46603-4 0  9998
2 51464  53.2160  44.5065 0001371  47.6182 179.0117 15.73178333  5331
STARLINK-3401           
1 51465U 22010K   22060.58334491  .00005117  00000+0  40860-4 0  9998
2 51465  53.2158  44.5047 0001578  33.6484 193.6155 15.73198428  5384
STARLINK-3178           
1 51467U 22010M   22059.91667824  .00041543  00000+0  29908-3 0  9996
2 51467  53.2168  47.6275 0001317  46.7782  88.5922 15.73189643  3359
STARLINK-3174           
1 51468U 22010N   22060.58334491  .00005986  00000+0  47031-4 0  9992
2 51468  53.2154  44.3319 0001606  47.2822 264.0190 15.73204811  5388
STARLINK-3182           
1 51469U 22010P   22060.58334491  .00007717  00000+0  59343-4 0  9996
2 51469  53.2164  44.5089 0001386  50.7667 175.2537 15.73204254  5386
STARLINK-3165           
1 51471U 22010R   22060.22465912 -.00199161  00000+0 -14251-2 0  9997
2 51471  53.2123  44.7771 0001595  23.0585 337.0506 15.73576288  5347
STARLINK-3415           
1 51472U 22010S   22060.58334491  .00005616  00000+0  44421-4 0  9997
2 51472  53.2157  44.3311 0001306  31.0886 280.8520 15.73190958  5385
LIGHT-1                 
1 51509U 98067TG  22059.57397553  .00019347  00000+0  32745-3 0  9999
2 51509  51.6493 154.2334 0008337 186.6932 173.3958 15.51543538  3951
GT-1                    
1 51510U 98067TH  22060.46374595  .00053731  00000+0  84200-3 0  9990
2 51510  51.6450 149.6757 0005573 185.5954 174.4975 15.53162522  4116
COSMOS 2553             
1 51511U 22011A   22060.45496979 -.00000072  00000+0 -10247-2 0  9998
2 51511  67.0921 192.6332 0004079 261.9082  98.1421 11.32854080  2744
ONEWEB-0410             
1 51622U 22012A   22060.58334491 -.00801493  00000+0 -34094-1 0  9997
2 51622  87.3669 355.0887 0017340 173.2597 152.0932 15.25450332  4165
ONEWEB-0411             
1 51623U 22012B   22060.58334491 -.00935101  00000+0 -49479-1 0  9995
2 51623  87.4058 355.1359 0015602 178.0643 261.8907 15.18068001  4147
ONEWEB-0415             
1 51624U 22012C   22060.58334491 -.00954784  00000+0 -49657-1 0  9992
2 51624  87.4054 355.1335 0016763 177.9920 286.6468 15.18696539  4143
ONEWEB-0416             
1 51625U 22012D   22060.25001157 -.00933628  00000+0 -42444-1 0  9998
2 51625  87.4094 355.2262 0014853 177.4834  51.9096 15.23256400  4106
ONEWEB-0422             
1 51626U 22012E   22060.58334491 -.00972030  00000+0 -43581-1 0  9998
2 51626  87.4095 355.1049 0017105 176.6759 122.3814 15.23780712  4165
ONEWEB-0423             
1 51627U 22012F   22060.58334491 -.00821439  00000+0 -34869-1 0  9994
2 51627  87.3693 355.0947 0018431 171.3720 162.9641 15.25558186  4166
ONEWEB-0425             
1 51628U 22012G   22060.58334491 -.00967543  00000+0 -48180-1 0  9993
2 51628  87.4129 355.1277 0017587 169.0692 356.8760 15.20207753  4153
ONEWEB-0428             
1 51629U 22012H   22060.58334491 -.00968648  00000+0 -52073-1 0  9997
2 51629  87.4043 355.1402 0014790 178.1318 244.1047 15.17628607  4145
ONEWEB-0431             
1 51630U 22012J   22059.91667824 -.01018931  00000+0 -49342-1 0  9990
2 51630  87.4076 355.3584 0017746 173.7764 293.5160 15.21297185  3473
ONEWEB-0434             
1 51631U 22012K   22059.91667824 -.01025907  00000+0 -48491-1 0  9996
2 51631  87.4094 355.3555 0016396 167.9318 325.3020 15.22165158  3476
ONEWEB-0435             
1 51632U 22012L   22060.58334491 -.00939988  00000+0 -48136-1 0  9991
2 51632  87.4088 355.1401 0017489 178.0901 297.5283 15.19173914  4144
ONEWEB-0436             
1 51633U 22012M   22059.91667824 -.00814172  00000+0 -32366-1 0  9991
2 51633  87.3773 355.3220 0016815 166.8440 148.0890 15.27730272  3486
ONEWEB-0438             
1 51634U 22012N   22060.25001157 -.00889939  00000+0 -41375-1 0  9995
2 51634  87.4118 355.2337 0014828 174.2310  41.2113 15.22811271  4106
ONEWEB-0439             
1 51635U 22012P   22059.91667824 -.00995110  00000+0 -46578-1 0  9995
2 51635  87.4079 355.3468 0015701 168.0475 335.4663 15.22424913  4058
ONEWEB-0442             
1 51636U 22012Q   22060.25001157 -.00769767  00000+0 -30632-1 0  9997
2 51636  87.3731 355.1954 0014950 163.5961 209.9631 15.27598454  4121
ONEWEB-0443             
1 51637U 22012R   22060.25001157 -.00768352  00000+0 -31172-1 0  9997
2 51637  87.3730 355.2050 0017016 167.3329 170.9257 15.26918856  4127
ONEWEB-0444             
1 51638U 22012S   22059.91667824 -.00920372  00000+0 -41012-1 0  9994
2 51638  87.4098 355.3456 0014914 180.8073  29.2961 15.24329445  3481
ONEWEB-0445             
1 51639U 22012T   22060.25001157 -.00887315  00000+0 -42163-1 0  9992
2 51639  87.4085 355.2318 0015373 169.0412  17.9560 15.22055968  4103
ONEWEB-0446             
1 51640U 22012U   22060.58334491 -.00970002  00000+0 -45311-1 0  9994
2 51640  87.4112 355.1135 0014609 174.1008  77.2593 15.22445476  4158
ONEWEB-0448             
1 51641U 22012V   22059.91667824 -.01003643  00000+0 -49379-1 0  9996
2 51641  87.4048 355.3623 0017894 178.0979 269.1241 15.20712191  3486
ONEWEB-0449             
1 51642U 22012W   22060.58334491 -.00934380  00000+0 -47170-1 0  9990
2 51642  87.4076 355.1297 0018195 171.7007 332.5226 15.19634213  4159
ONEWEB-0451             
1 51643U 22012X   22060.25001157 -.00791435  00000+0 -32630-1 0  9992
2 51643  87.3723 355.2071 0017803 170.4221 148.9986 15.26442632  4127
ONEWEB-0452             
1 51644U 22012Y   22060.58334491  .00021742  00000+0  79409-3 0  9991
2 51644  87.3810 355.0892 0014693 162.5053 252.8395 15.27897153  4170
ONEWEB-0455             
1 51645U 22012Z   22059.91667824 -.01013794  00000+0 -51301-1 0  9996
2 51645  87.4046 355.3664 0016209 182.3553 228.5487 15.19814599  3482
ONEWEB-0456             
1 51646U 22012AA  22060.25001157 -.00914632  00000+0 -41135-1 0  9991
2 51646  87.4103 355.2214 0015646 177.7572  70.7847 15.23987656  4107
ONEWEB-0457             
1 51647U 22012AB  22060.25001157 -.00928246  00000+0 -43131-1 0  9996
2 51647  87.4076 355.2276 0014698 172.1735  32.1810 15.22508992  4104
ONEWEB-0458             
1 51648U 22012AC  22060.25001157 -.00923927  00000+0 -44624-1 0  9996
2 51648  87.4091 355.2394 0016232 167.4972 344.2698 15.21156662  4102
ONEWEB-0461             
1 51649U 22012AD  22060.58334491 -.00945581  00000+0 -42838-1 0  9998
2 51649  87.4103 355.1108 0016334 178.5669 105.3621 15.23376914  4162
ONEWEB-0463             
1 51650U 22012AE  22060.25001157 -.00771783  00000+0 -31564-1 0  9999
2 51650  87.3739 355.2060 0017440 169.1516 159.7223 15.26655818  4125
ONEWEB-0464             
1 51651U 22012AF  22059.91667824 -.01000605  00000+0 -46154-1 0  9990
2 51651  87.4085 355.3470 0014708 172.1003 357.0614 15.22952847  4053
ONEWEB-0468             
1 51652U 22012AG  22059.91667824 -.01022621  00000+0 -50745-1 0  9994
2 51652  87.4033 355.3562 0017614 179.5276 258.3258 15.20478975  3487
ONEWEB-0473             
1 51653U 22012AH  22060.25001157 -.00930967  00000+0 -44241-1 0  9999
2 51653  87.4090 355.2405 0015841 167.8878   8.3532 15.21734131  4102
ONEWEB-0474             
1 51654U 22012AJ  22060.58334491 -.00954124  00000+0 -50370-1 0  9997
2 51654  87.4046 355.1415 0014160 180.8130 256.6188 15.18227393  4145
ONEWEB-0475             
1 51655U 22012AK  22060.25001157 -.00789020  00000+0 -33318-1 0  9996
2 51655  87.3727 355.2175 0017443 176.3504 110.7749 15.25652569  4112
EOS-4                   
1 51656U 22013A   22060.43107574  .00001265  00000+0  75939-4 0  9992
2 51656  97.5539  69.3831 0011742 190.4574 303.6943 15.12703130  2326
INSPIRESAT-1            
1 51657U 22013B   22060.00617194  .00001982  00000+0  11575-3 0  9991
2 51657  97.5595  68.9878 0010493 199.5013 160.5818 15.13054885  2266
INS-2TD                 
1 51658U 22013C   22060.26897510  .00002969  00000+0  17062-3 0  9995
2 51658  97.5595  69.2509 0010249 199.6092 160.4747 15.13243721  2303
PSLV R/B                
1 51659U 22013D   22060.57512933  .00002202  00000+0  11814-3 0  9992
2 51659  97.5730  69.6767 0032157 284.5973  75.1691 15.15609105  2358
PROGRESS-MS 19          
1 51660U 22014A   22059.55158828  .00007468  00000+0  14110-3 0  9991
2 51660  51.6426 154.5782 0005612 197.3538 286.5490 15.49502175328338
CYGNUS NG-17            
1 51712U 22015A   22059.55158828  .00007468  00000+0  14110-3 0  9990
2 51712  51.6426 154.5782 0005612 197.3538 286.5490 15.49502175328336
STARLINK-3528           
1 51714U 22016A   22060.58334491 -.00026334  00000+0 -18367-3 0  9993
2 51714  53.2199 100.0631 0001460  42.5266 345.4896 15.73216165  2475
STARLINK-3533           
1 51715U 22016B   22059.91667824 -.00012609  00000+0 -85533-4 0  9998
2 51715  53.2198 103.3547 0001161  54.8736 157.2038 15.73207661  1830
STARLINK-3543           
1 51716U 22016C   22060.58334491  .00082951  00000+0  59096-3 0  9994
2 51716  53.2182 100.0612 0001507  52.6693 335.9399 15.73147017  2477
STARLINK-3445           
1 51717U 22016D   22060.58334491  .00082422  00000+0  58697-3 0  9994
2 51717  53.2200 100.0596 0001523  52.4155 336.8458 15.73158332  2545
